ONEWEB-0199             
1 48234U 21031AA  25090.86488477  .00000282  00000+0  72613-3 0  9999
2 48234  87.9090  17.6509 0001983  78.1539 281.9813 13.14502853190158
ONEWEB-0203             
1 48235U 21031AB  25090.85536916  .00000234  00000+0  59611-3 0  9991
2 48235  87.9090  17.6551 0002048  69.3107 290.8242 13.14502142190169
ONEWEB-0197             
1 48236U 21031AC  25090.83079734 -.00000102  00000+0 -31027-3 0  9997
2 48236  87.9087  17.6709 0001902  88.6187 271.5160 13.14504465190076
ONEWEB-0194             
1 48237U 21031AD  25090.80938283 -.00000095  00000+0 -28972-3 0  9994
2 48237  87.9092  17.6706 0002048  74.4362 285.6994 13.14502334190243
ONEWEB-0193             
1 48238U 21031AE  25090.82524388 -.00000154  00000+0 -45010-3 0  9992
2 48238  87.9091  17.6753 0001820  73.8051 286.3279 13.14504144190199
ONEWEB-0191             
1 48239U 21031AF  25090.83631533 -.00000010  00000+0 -62534-4 0  9997
2 48239  87.9087  17.6480 0001863  69.5501 290.5829 13.14490022190053
ONEWEB-0195             
1 48240U 21031AG  25090.81334355 -.00000086  00000+0 -26752-3 0  9993
2 48240  87.9089  17.6508 0001483  69.4826 290.6462 13.14502913190030
ONEWEB-0201             
1 48241U 21031AH  25090.80160037  .00000151  00000+0  37243-3 0  9995
2 48241  87.9092  17.6967 0001632  83.2246 276.9069 13.14498290190267
